ONEWEB-0201             
1 48241U 21031AH  21184.16667824 -.01137335  00000-0 -42285+0 0  9997
2 48241  87.6937 291.2444 0011700  24.7678  88.3531 14.35337831 10232
ONEWEB-0207             
1 48242U 21031AJ  21183.91667824 -.00995426  00000-0 -41446+0 0  9990
2 48242  87.6512 291.2792 0010341  43.9977 348.7149 14.29656297  3517
ONEWEB-0208             
1 48243U 21031AK  21183.91667824 -.01011583  00000-0 -39514+0 0  9998
2 48243  87.6550 291.2538 0008617  42.9035 231.9555 14.32994261  3508
ONEWEB-0200             
1 48244U 21031AL  21184.58335648 -.01137841  00000-0 -57424+0 0  9995
2 48244  87.5960 291.0712 0011787  35.9415 235.0359 14.19472623 10212
ONEWEB-0217             
1 48245U 21031AM  21183.91667824 -.01196010  00000-0 -63661+0 0  9999
2 48245  87.5567 291.2202 0009790  55.7376 111.3327 14.16799691  3485
ONEWEB-0211             
1 48767U 21045A   21184.50001157 -.00915134  00000-0 -56709-1 0  9992
2 48767  87.4593 264.0756 0008993 134.2658  29.5577 15.12555548  6763
ONEWEB-0223             
1 48768U 21045B   21184.50001157 -.00947404  00000-0 -60317-1 0  9998
2 48768  87.4688 264.0516 0012935 116.7304 256.3392 15.11628076  6780
ONEWEB-0230             
1 48769U 21045C   21184.50001157 -.00790060  00000-0 -32214-1 0  9998
2 48769  87.4630 263.9821 0009344 122.9816  25.8002 15.26954008  6760
ONEWEB-0237             
1 48770U 21045D   21184.50001157 -.00960634  00000-0 -78230-1 0  9994
2 48770  87.4348 264.1240 0013133 129.6222 241.3352 15.02619837  6756
ONEWEB-0235             
1 48771U 21045E   21184.50001157 -.00911950  00000-0 -68281-1 0  9997
2 48771  87.4221 264.1359 0007928 132.6882  26.7502 15.05671773  6739
ONEWEB-0242             
1 48772U 21045F   21184.50001157 -.00914726  00000-0 -54297-1 0  9994
2 48772  87.4595 264.0492 0012010 134.8596 167.8133 15.14043662  6776
ONEWEB-0241             
1 48773U 21045G   21184.50001157 -.00944802  00000-0 -68245-1 0  9991
2 48773  87.4385 264.0999 0009455 119.8300 155.3713 15.07082821  6768
ONEWEB-0243             
1 48774U 21045H   21184.50001157 -.00961828  00000-0 -76069-1 0  9992
2 48774  87.4380 264.1406 0012650 132.9851 237.5077 15.03728344  6754
ONEWEB-0222             
1 48775U 21045J   21184.50001157 -.00948584  00000-0 -64501-1 0  9995
2 48775  87.4579 264.0745 0012436 130.7352  93.0426 15.09261966  6777
ONEWEB-0244             
1 48776U 21045K   21184.50001157 -.00910856  00000-0 -47946-1 0  9991
2 48776  87.4830 264.0415 0008488 119.9866  43.6219 15.18289986  6776
ONEWEB-0247             
1 48777U 21045L   21184.50001157 -.00968727  00000-0 -70600-1 0  9995
2 48777  87.4426 264.0972 0009298 119.8393 164.3438 15.06831247  6763
ONEWEB-0245             
1 48778U 21045M   21184.50001157 -.00954426  00000-0 -77045-1 0  9997
2 48778  87.4377 264.1335 0013075 127.7222 272.6564 15.02930852  6750
ONEWEB-0229             
1 48779U 21045N   21184.50001157 -.00956091  00000-0 -70442-1 0  9992
2 48779  87.4493 264.1058 0008561 132.2457 188.3995 15.06399232  6764
ONEWEB-0228             
1 48780U 21045P   21183.91667824 -.01025896  00000-0 -77361-1 0  9995
2 48780  87.4365 264.3167 0011718 120.7853  86.2765 15.05234335  3621
ONEWEB-0232             
1 48781U 21045Q   21184.50001157 -.00752060  00000-0 -26541-1 0  9996
2 48781  87.4543 263.9511 0011677 138.8003 240.9451 15.31887390  6773
ONEWEB-0231             
1 48782U 21045R   21184.50001157 -.00943073  00000-0 -67157-1 0  9991
2 48782  87.4463 264.0821 0009719 135.6350 288.3036 15.07597107  6766
ONEWEB-0234             
1 48783U 21045S   21184.50001157 -.00931975  00000-0 -65333-1 0  9994
2 48783  87.4459 264.1078 0010710 117.6814 135.1544 15.08124675  6765
ONEWEB-0238             
1 48784U 21045T   21184.50001157 -.00941239  00000-0 -64692-1 0  9996
2 48784  87.4555 264.0849 0011769 133.1880  33.1175 15.08859086  6767
ONEWEB-0240             
1 48785U 21045U   21184.50001157 -.00892314  00000-0 -60139-1 0  9998
2 48785  87.4654 264.0939 0008687 126.7102 270.5037 15.09463667  6769
ONEWEB-0246             
1 48786U 21045V   21184.50001157 -.00958758  00000-0 -83704-1 0  9997
2 48786  87.4173 264.1584 0008182 139.7049 309.1035 14.99572712  6731
ONEWEB-0210             
1 48787U 21045W   21184.50001157 -.00942715  00000-0 -74844-1 0  9999
2 48787  87.4352 264.1250 0011749 118.3852 331.4387 15.03537224  6754
ONEWEB-0214             
1 48788U 21045X   21184.50001157 -.00959832  00000-0 -85560-1 0  9995
2 48788  87.4204 264.1625 0008007 128.4509 234.5176 14.98779859  6733
ONEWEB-0221             
1 48789U 21045Y   21184.50001157 -.00930533  00000-0 -58769-1 0  9994
2 48789  87.4691 264.0573 0012829 113.6468 283.1263 15.11867460  6786
ONEWEB-0213             
1 48790U 21045Z   21184.50001157 -.00925616  00000-0 -60849-1 0  9994
2 48790  87.4613 264.0605 0013204 121.9312 178.7999 15.10404307  6787
ONEWEB-0212             
1 48791U 21045AA  21184.50001157 -.00938486  00000-0 -60258-1 0  9998
2 48791  87.4642 264.0713 0013193 120.0893 215.5267 15.11292639  6783
ONEWEB-0227             
1 48792U 21045AB  21184.50001157 -.00933242  00000-0 -70320-1 0  9995
2 48792  87.4713 264.1463 0010698 118.0030  94.0844 15.05469280  6763
ONEWEB-0226             
1 48793U 21045AC  21184.50001157 -.00948039  00000-0 -73216-1 0  9993
2 48793  87.4293 264.1273 0011655 140.3402 175.1851 15.04587212  6743
ONEWEB-0224             
1 48794U 21045AD  21184.50001157 -.00973716  00000-0 -93143-1 0  9995
2 48794  87.3965 264.1677 0009971 125.0413  93.3003 14.96069926  6733
ONEWEB-0233             
1 48795U 21045AE  21183.91667824 -.00974859  00000-0 -87749-1 0  9993
2 48795  87.4069 264.3708 0008890 131.1897 252.7123 14.98438638  3610
ONEWEB-0190             
1 48796U 21045AF  21184.50001157 -.00937546  00000-0 -71919-1 0  9995
2 48796  87.4319 264.1407 0011177 141.1008 158.6829 15.04811883  6749
ONEWEB-0236             
1 48797U 21045AG  21184.50001157 -.00964921  00000-0 -86652-1 0  9993
2 48797  87.4068 264.1424 0008074 134.9948 261.2778 14.98509334  6735
ONEWEB-0248             
1 48798U 21045AH  21184.50001157 -.00914400  00000-0 -54788-1 0  9996
2 48798  87.4585 264.0557 0011135 136.1138 127.0888 15.13723675  6761
ONEWEB-0225             
1 48799U 21045AJ  21184.50001157 -.00920277  00000-0 -53246-1 0  9994
2 48799  87.4545 264.0684 0008627 133.4844  40.0438 15.15011194  6768
ONEWEB-0215             
1 48800U 21045AK  21184.50001157 -.00966459  00000-0 -83694-1 0  9999
2 48800  87.4177 264.1447 0009964 140.0492   7.7687 14.99884219  6738
ONEWEB-0216             
1 48801U 21045AL  21184.50001157 -.00973538  00000-0 -84213-1 0  9994
2 48801  87.4467 264.1966 0008841 139.4353 344.7452 14.99959556  6739
ONEWEB-0239             
1 48802U 21045AM  21184.50001157 -.00932303  00000-0 -72419-1 0  9995
2 48802  87.4385 264.1245 0012848 135.0870 227.8533 15.04303868  6756
ONEWEB-0249             
1 48967U 21061A   21184.16667824 -.00006069  00000-0 -15061-3 0  9999
2 48967  87.3979 236.8588 0003967 290.9842 160.4759 15.40633243  1530
ONEWEB-0250             
1 48968U 21061B   21183.66667824 -.00002006  00000-0 -51530-4 0  9993
2 48968  87.3989 237.0342 0004895 259.0611 298.9606 15.40021437  1460
ONEWEB-0251             
1 48969U 21061C   21183.91667824  .00017908  00000-0  46577-3 0  9991
2 48969  87.3971 236.9458 0007258 291.8297 205.6640 15.38775287  1377
ONEWEB-0252             
1 48970U 21061D   21183.66667824 -.00000274  00000-0 -76955-5 0  9990
2 48970  87.4004 237.0364 0007323 282.8263 280.4832 15.41422059  1465
ONEWEB-0253             
1 48971U 21061E   21183.66667824 -.00002893  00000-0 -79973-4 0  9992
2 48971  87.3991 237.0369 0004652 268.0624 281.0453 15.37542743  1457
ONEWEB-0254             
1 48972U 21061F   21183.91667824  .00018499  00000-0  47930-3 0  9995
2 48972  87.3984 236.9487 0007594 289.0018 209.0103 15.38890934  1379
ONEWEB-0255             
1 48973U 21061G   21184.50001157  .00058641  00000-0  14388-2 0  9996
2 48973  87.3999 236.7370 0003468 288.2527 209.8561 15.40471328  1581
ONEWEB-0256             
1 48974U 21061H   21183.91667824  .00017626  00000-0  45262-3 0  9994
2 48974  87.4001 236.9477 0007620 277.6701 221.5799 15.39163797  1341
ONEWEB-0257             
1 48975U 21061J   21184.16667824 -.00007787  00000-0 -19835-3 0  9999
2 48975  87.3993 236.8558 0005962 258.0819 188.6895 15.39784341  1535
ONEWEB-0258             
1 48976U 21061K   21183.66667824 -.00002990  00000-0 -81985-4 0  9991
2 48976  87.4004 237.0377 0004202 280.8704 269.0970 15.37788079  1453
ONEWEB-0259             
1 48977U 21061L   21183.66667824 -.00000207  00000-0 -60297-5 0  9995
2 48977  87.3996 237.0350 0008064 277.0093 287.2469 15.41668792  1463
ONEWEB-0260             
1 48978U 21061M   21183.66667824 -.00003106  00000-0 -85477-4 0  9993
2 48978  87.3965 237.0349 0004436 273.5765 275.9266 15.37655695  1455
ONEWEB-0261             
1 48979U 21061N   21183.66667824 -.00000157  00000-0 -48593-5 0  9996
2 48979  87.3979 237.0322 0007714 279.4627 284.3706 15.41558372  1469
ONEWEB-0262             
1 48980U 21061P   21184.16667824 -.00006665  00000-0 -16399-3 0  9991
2 48980  87.3989 236.8576 0004987 293.4023 159.3898 15.40872640  1532
ONEWEB-0263             
1 48981U 21061Q   21183.91667824  .00017734  00000-0  44512-3 0  9999
2 48981  87.3987 236.9493 0005436 258.4719 244.0297 15.39876824  1332
ONEWEB-0264             
1 48982U 21061R   21183.91667824  .00017683  00000-0  46365-3 0  9991
2 48982  87.3978 236.9474 0006654 298.9335 197.4654 15.38531133  1369
ONEWEB-0265             
1 48983U 21061S   21183.91667824  .00018031  00000-0  44343-3 0  9994
2 48983  87.3986 236.9463 0003488 282.4801 222.9259 15.40506969  1339
ONEWEB-0266             
1 48984U 21061T   21184.16667824 -.00003166  00000-0 -82827-4 0  9998
2 48984  87.3958 236.8583 0007176 274.4749 169.4877 15.39199341  1534
